FORMOSAT 7-3            
1 44343U 19036E   26068.82630502  .00006445  00000+0  37650-3 0  9997
2 44343  23.9981 141.9797 0001061 150.4425 209.6139 15.08933962368215
STARLINK-4082           
1 52658U 22053C   26068.49618946  .00000217  00000+0  31752-4 0  9998
2 52658  53.2172 154.9911 0001454 104.3967 255.7187 15.08840906211204
